0 ARIANE 3 DEB
1 22101U 88063G   13281.54814000  .00009561  00000-0  69179-2 0  4808
2 22101 007.8427 325.5373 4611085 280.6520 032.2005 06.10483601408500
0 ARIANE 3 DEB
1 22101U 88063G   13282.69389295  .00009659  00000-0  69489-2 0  4811
2 22101 007.8428 323.8729 4611323 283.9396 030.3144 06.10506366408573
0 ARIANE 3 DEB
1 22101U 88063G   13284.33066631  .00010194  00000-0  72674-2 0  4827
2 22101 007.8417 321.5119 4611796 288.6205 027.7917 06.10544094408673
0 ARIANE 3 DEB
1 22101U 88063G   13288.09510823  .00012122  00000-0  89097-2 0  4832
2 22101 007.8426 316.1037 4608998 299.3640 022.6832 06.10646734408904
0 ARIANE 3 DEB
1 22101U 88063G   13289.56792369  .00012424  00000-0  88875-2 0  4841
2 22101 007.8403 313.9339 4611088 303.6019 020.5050 06.10683718408993
0 ARIANE 3 DEB
1 22101U 88063G   13294.47730169  .00013897  00000-0  10056-1 0  4858
2 22101 007.8401 306.8441 4609405 317.6196 014.9397 06.10826580409298
0 ARIANE 3 DEB
1 22101U 88063G   13295.13169508  .00014238  00000-0  10099-1 0  4863
2 22101 007.8373 305.8941 4610855 319.4953 013.9982 06.10849257409332
